MALLIGYONG-1            
1 58400U 23179A   24191.21792519  .00005606  00000+0  25323-3 0  9996
2 58400  97.4008  77.6931 0003670 106.2570 253.9070 15.21355052 35077
